NORAD_CAT_ID,OBJECT_NAME,OBJECT_TYPE,EPOCH,MEAN_MOTION,ECCENTRICITY,INCLINATION,RA_OF_ASC_NODE,ARG_OF_PERICENTER,MEAN_ANOMALY,BSTAR,MEAN_MOTION_DOT,MEAN_MOTION_DDOT,TLE_LINE0,TLE_LINE1,TLE_LINE2,SEMIMAJOR_AXIS,PERIOD,APOGEE,PERIGEE,DECAYED
53786.0,STARLINK-4631,PAYLOAD,2024-07-14 23:39:24,15.0885167,0.0001322,53.2174,89.5254,95.4226,264.6917,-1.4956e-05,-5.26e-06,0.0,0 STARLINK-4631,1 53786U 22111P   24196.98570229 -.00000526  00000-0 -14956-4 0  9994,2 53786  53.2174  89.5254 0001322  95.4226 264.6917 15.08851670102045,6917.845,95.437,540.624,538.795,0.0
53786.0,STARLINK-4631,PAYLOAD,2024-07-15 20:19:25,15.0884301,0.0001328,53.2174,85.6598,94.9878,265.1266,-5.1893e-05,-1.114e-05,0.0,0 STARLINK-4631,1 53786U 22111P   24197.84682443 -.00001114  00000-0 -51893-4 0  9997,2 53786  53.2174  85.6598 0001328  94.9878 265.1266 15.08843010102172,6917.871,95.437,540.655,538.817,0.0
53786.0,STARLINK-4631,PAYLOAD,2024-07-15 21:54:48,15.0884359,0.000133,53.2173,85.3624,94.924,265.1904,-4.6435e-05,-1.027e-05,0.0,0 STARLINK-4631,1 53786U 22111P   24197.91306367 -.00001027  00000-0 -46435-4 0  9992,2 53786  53.2173  85.3624 0001330  94.9240 265.1904 15.08843590102996,6917.869,95.437,540.654,538.814,0.0
53786.0,STARLINK-4631,PAYLOAD,2024-07-15 23:30:11,15.08845478,0.0001317,53.2175,85.0661,93.424,266.6903,-3.3239e-05,-8.17e-06,0.0,0 STARLINK-4631,1 53786U 22111P   24197.97930196 -.00000817  00000-0 -33239-4 0  9995,2 53786  53.2175  85.0661 0001317  93.4240 266.6903 15.08845478103000,6917.864,95.437,540.64,538.818,0.0
53786.0,STARLINK-4631,PAYLOAD,2024-07-16 21:45:35,15.08837798,0.0001279,53.2173,80.9043,95.349,264.7649,-2.1931e-05,-6.37e-06,0.0,0 STARLINK-4631,1 53786U 22111P   24198.90666548 -.00000637  00000-0 -21931-4 0  9992,2 53786  53.2173  80.9043 0001279  95.3490 264.7649 15.08837798102338,6917.887,95.438,540.637,538.867,0.0
53786.0,STARLINK-4631,PAYLOAD,2024-07-17 08:53:17,15.08837763,0.0001243,53.2172,78.822,91.3583,268.7551,1.7189e-05,-1.4e-07,0.0,0 STARLINK-4631,1 53786U 22111P   24199.37034466 -.00000014  00000-0  17189-4 0  9990,2 53786  53.2172  78.8220 0001243  91.3583 268.7551 15.08837763103216,6917.887,95.438,540.612,538.892,0.0
53786.0,STARLINK-4631,PAYLOAD,2024-07-17 21:36:23,15.08832148,0.0001271,53.2174,76.4438,93.6999,266.4138,-1.8491e-05,-5.82e-06,0.0,0 STARLINK-4631,1 53786U 22111P   24199.90027182 -.00000582  00000-0 -18491-4 0  9994,2 53786  53.2174  76.4438 0001271  93.6999 266.4138 15.08832148103296,6917.904,95.438,540.649,538.89,0.0
53786.0,STARLINK-4631,PAYLOAD,2024-07-18 00:47:09,15.08834884,0.0001291,53.2175,75.8497,95.7847,264.3292,3.7518e-06,-2.28e-06,0.0,0 STARLINK-4631,1 53786U 22111P   24200.03274990 -.00000228  00000-0  37518-5 0  9990,2 53786  53.2175  75.8497 0001291  95.7847 264.3292 15.08834884102502,6917.896,95.438,540.654,538.868,0.0
53786.0,STARLINK-4631,PAYLOAD,2024-07-18 08:44:05,15.08836037,0.0001333,53.2183,74.3626,92.3833,267.7312,4.0407e-05,3.55e-06,0.0,0 STARLINK-4631,1 53786U 22111P   24200.36394927  .00000355  00000-0  40407-4 0  9999,2 53786  53.2183  74.3626 0001333  92.3833 267.7312 15.08836037103361,6917.893,95.438,540.68,538.835,0.0
53786.0,STARLINK-4631,PAYLOAD,2024-07-18 21:27:09,15.08841488,0.0001335,53.2183,71.9851,94.8591,265.2554,7.1964e-05,8.58e-06,0.0,0 STARLINK-4631,1 53786U 22111P   24200.89386564  .00000858  00000-0  71964-4 0  9995,2 53786  53.2183  71.9851 0001335  94.8591 265.2554 15.08841488103440,6917.876,95.437,540.664,538.817,0.0
53786.0,STARLINK-4631,PAYLOAD,2024-07-19 00:37:56,15.08843613,0.0001317,53.2182,71.3897,93.0064,267.1079,8.376e-05,1.046e-05,0.0,0 STARLINK-4631,1 53786U 22111P   24201.02634386  .00001046  00000-0  83760-4 0  9996,2 53786  53.2182  71.3897 0001317  93.0064 267.1079 15.08843613102656,6917.869,95.437,540.645,538.823,0.0
53786.0,STARLINK-4631,PAYLOAD,2024-07-19 08:34:52,15.08836545,0.0001535,53.2193,69.8991,85.8944,274.2224,1.7815e-05,-4e-08,0.0,0 STARLINK-4631,1 53786U 22111P   24201.35755128 -.00000004  00000-0  17815-4 0  9992,2 53786  53.2193  69.8991 0001535  85.8944 274.2224 15.08836545102706,6917.891,95.438,540.818,538.694,0.0
53786.0,STARLINK-4631,PAYLOAD,2024-07-19 22:53:20,15.08835961,0.0001215,53.2173,67.2233,88.047,272.0662,3.1525e-05,2.14e-06,0.0,0 STARLINK-4631,1 53786U 22111P   24201.95371175  .00000214  00000-0  31525-4 0  9990,2 53786  53.2173  67.2233 0001215  88.0470 272.0662 15.08835961103602,6917.893,95.438,540.598,538.917,0.0
53786.0,STARLINK-4631,PAYLOAD,2024-07-20 08:25:39,15.08840209,0.0001225,53.2175,65.4393,87.6355,272.4777,5.5064e-05,5.89e-06,0.0,0 STARLINK-4631,1 53786U 22111P   24202.35114869  .00000589  00000-0  55064-4 0  9999,2 53786  53.2175  65.4393 0001225  87.6355 272.4777 15.08840209103667,6917.88,95.438,540.592,538.897,0.0
53786.0,STARLINK-4631,PAYLOAD,2024-07-20 21:08:44,15.08844967,0.0001229,53.2172,63.0601,88.9239,271.1894,6.1861e-05,6.97e-06,0.0,0 STARLINK-4631,1 53786U 22111P   24202.88106485  .00000697  00000-0  61861-4 0  9994,2 53786  53.2172  63.0601 0001229  88.9239 271.1894 15.08844967102939,6917.865,95.437,540.58,538.88,0.0
53786.0,STARLINK-4631,PAYLOAD,2024-07-21 00:19:30,15.0884758,0.0001217,53.2175,62.4651,89.6311,270.4821,4.1308e-05,3.7e-06,0.0,0 STARLINK-4631,1 53786U 22111P   24203.01354339  .00000370  00000-0  41308-4 0  9995,2 53786  53.2175  62.4651 0001217  89.6311 270.4821 15.08847580103764,6917.857,95.437,540.564,538.88,0.0
53786.0,STARLINK-4631,PAYLOAD,2024-07-21 20:59:31,15.08835605,0.0001244,53.2174,58.5981,95.3272,264.7862,1.3614e-05,-7.1e-07,0.0,0 STARLINK-4631,1 53786U 22111P   24203.87467283 -.00000071  00000-0  13614-4 0  9990,2 53786  53.2174  58.5981 0001244  95.3272 264.7862 15.08835605103086,6917.894,95.438,540.619,538.898,0.0
53786.0,STARLINK-4631,PAYLOAD,2024-07-22 14:28:46,15.08839245,0.0001343,53.2179,55.3255,102.6744,257.4399,-2.6644e-05,-7.12e-06,0.0,0 STARLINK-4631,1 53786U 22111P   24204.60331288 -.00000712  00000-0 -26644-4 0  9997,2 53786  53.2179  55.3255 0001343 102.6744 257.4399 15.08839245104007,6917.883,95.438,540.677,538.819,0.0
53786.0,STARLINK-4631,PAYLOAD,2024-07-22 17:39:32,15.088417,0.0001385,53.2182,54.7314,102.1874,257.9274,-1.0292e-05,-4.52e-06,0.0,0 STARLINK-4631,1 53786U 22111P   24204.73579093 -.00000452  00000-0 -10292-4 0  9992,2 53786  53.2182  54.7314 0001385 102.1874 257.9274 15.08841700104023,6917.875,95.437,540.698,538.782,0.0
53786.0,STARLINK-4631,PAYLOAD,2024-07-23 00:01:04,15.08839043,0.0001476,53.2184,53.541,106.9616,253.1538,2.2947e-05,7.7e-07,0.0,0 STARLINK-4631,1 53786U 22111P   24205.00075122  .00000077  00000-0  22947-4 0  9998,2 53786  53.2184  53.5410 0001476 106.9616 253.1538 15.08839043103258,6917.883,95.438,540.769,538.727,0.0
53786.0,STARLINK-4631,PAYLOAD,2024-07-24 12:34:57,15.08837301,0.0001279,53.2176,46.7043,85.9187,274.1952,2.1572e-06,-2.54e-06,0.0,0 STARLINK-4631,1 53786U 22111P   24206.52427503 -.00000254  00000-0  21572-5 0  9992,2 53786  53.2176  46.7043 0001279  85.9187 274.1952 15.08837301103488,6917.889,95.438,540.638,538.869,0.0
53786.0,STARLINK-4631,PAYLOAD,2024-07-24 23:42:39,15.08835954,0.0001359,53.2179,44.6221,97.5278,262.5869,-3.0054e-06,-3.36e-06,0.0,0 STARLINK-4631,1 53786U 22111P   24206.98795842 -.00000336  00000-0 -30054-5 0  9993,2 53786  53.2179  44.6221 0001359  97.5278 262.5869 15.08835954104363,6917.893,95.438,540.698,538.818,0.0
53786.0,STARLINK-4631,PAYLOAD,2024-07-25 23:33:26,15.08840583,0.000123,53.218,40.1611,96.6236,263.4896,3.8952e-05,3.32e-06,0.0,0 STARLINK-4631,1 53786U 22111P   24207.98155458  .00000332  00000-0  38952-4 0  9995,2 53786  53.2180  40.1611 0001230  96.6236 263.4896 15.08840583103702,6917.879,95.438,540.595,538.893,0.0
53786.0,STARLINK-4631,PAYLOAD,2024-07-26 10:41:08,15.08837135,0.0001239,53.2189,38.0833,84.8223,275.2911,4.0378e-05,3.55e-06,0.0,0 STARLINK-4631,1 53786U 22111P   24208.44523799  .00000355  00000-0  40378-4 0  9994,2 53786  53.2189  38.0833 0001239  84.8223 275.2911 15.08837135104582,6917.889,95.438,540.611,538.897,0.0
53786.0,STARLINK-4631,PAYLOAD,2024-07-26 21:48:50,15.08840279,0.0001323,53.2173,36.0022,85.6373,274.477,7.6394e-05,9.28e-06,0.0,0 STARLINK-4631,1 53786U 22111P   24208.90891491  .00000928  00000-0  76394-4 0  9995,2 53786  53.2173  36.0022 0001323  85.6373 274.4770 15.08840279104657,6917.88,95.438,540.66,538.829,0.0
53786.0,STARLINK-4631,PAYLOAD,2024-07-27 12:07:18,15.08836533,0.000137,53.2169,33.3269,85.2399,274.8749,2.6298e-05,1.31e-06,0.0,0 STARLINK-4631,1 53786U 22111P   24209.50507946  .00000131  00000-0  26298-4 0  9995,2 53786  53.2169  33.3269 0001370  85.2399 274.8749 15.08836533103939,6917.891,95.438,540.704,538.808,0.0
53786.0,STARLINK-4631,PAYLOAD,2024-07-27 16:53:28,15.08836246,0.0001363,53.2174,32.4343,85.6511,274.4637,-1.0433e-05,-4.54e-06,0.0,0 STARLINK-4631,1 53786U 22111P   24209.70380179 -.00000454  00000-0 -10433-4 0  9998,2 53786  53.2174  32.4343 0001363  85.6511 274.4637 15.08836246104776,6917.892,95.438,540.7,538.814,0.0
53786.0,STARLINK-4631,PAYLOAD,2024-07-28 19:55:01,15.08841397,0.0001409,53.2179,27.3787,84.294,275.8212,1.0632e-05,-1.19e-06,0.0,0 STARLINK-4631,1 53786U 22111P   24210.82987865 -.00000119  00000-0  10632-4 0  9996,2 53786  53.2179  27.3787 0001409  84.2940 275.8212 15.08841397104135,6917.876,95.437,540.716,538.766,0.0
53786.0,STARLINK-4631,PAYLOAD,2024-07-29 11:48:52,15.08840356,0.0001401,53.2184,24.4045,85.7631,274.3522,4.5444e-05,4.35e-06,0.0,0 STARLINK-4631,1 53786U 22111P   24211.49227784  .00000435  00000-0  45444-4 0  9996,2 53786  53.2184  24.4045 0001401  85.7631 274.3522 15.08840356105044,6917.879,95.438,540.713,538.775,0.0
53786.0,STARLINK-4631,PAYLOAD,2024-07-29 21:21:11,15.0884307,0.0001404,53.2182,22.6202,85.7385,274.3767,6.3947e-05,7.3e-06,0.0,0 STARLINK-4631,1 53786U 22111P   24211.88971500  .00000730  00000-0  63947-4 0  9997,2 53786  53.2182  22.6202 0001404  85.7385 274.3767 15.08843070105100,6917.871,95.437,540.707,538.765,0.0
